CCSDS_OMM_VERS = 2.0
CREATION_DATE  = 
ORIGINATOR     = 

OBJECT_NAME    = ALOS (DAICHI)
OBJECT_ID      = 2006-002A
CENTER_NAME    = EARTH
REF_FRAME      = TEME
TIME_SYSTEM    = UTC
MEAN_ELEMENT_THEORY = SGP/SGP4

EPOCH          = 2025-12-10T10:45:41.200128
MEAN_MOTION    = 14.69476480
ECCENTRICITY   = .0001056
INCLINATION    = 98.1091
RA_OF_ASC_NODE = 295.9518
ARG_OF_PERICENTER = 113.0032
MEAN_ANOMALY   = 247.1285

EPHEMERIS_TYPE = 0
CLASSIFICATION_TYPE = U
NORAD_CAT_ID   = 28931
ELEMENT_SET_NO = 999
REV_AT_EPOCH   = 6037
BSTAR          = .40813E-3
MEAN_MOTION_DOT = .2369E-4
MEAN_MOTION_DDOT = 0

CCSDS_OMM_VERS = 2.0
CREATION_DATE  = 
ORIGINATOR     = 

OBJECT_NAME    = H-2A R/B
OBJECT_ID      = 2006-002B
CENTER_NAME    = EARTH
REF_FRAME      = TEME
TIME_SYSTEM    = UTC
MEAN_ELEMENT_THEORY = SGP/SGP4

EPOCH          = 2025-12-10T08:10:48.595008
MEAN_MOTION    = 15.14489465
ECCENTRICITY   = .0054521
INCLINATION    = 98.2316
RA_OF_ASC_NODE = 118.8933
ARG_OF_PERICENTER = 184.5657
MEAN_ANOMALY   = 175.5083

EPHEMERIS_TYPE = 0
CLASSIFICATION_TYPE = U
NORAD_CAT_ID   = 28932
ELEMENT_SET_NO = 999
REV_AT_EPOCH   = 8090
BSTAR          = .84576E-3
MEAN_MOTION_DOT = .16099E-3
MEAN_MOTION_DDOT = 0

CCSDS_OMM_VERS = 2.0
CREATION_DATE  = 
ORIGINATOR     = 

OBJECT_NAME    = RESURS-DK 1
OBJECT_ID      = 2006-021A
CENTER_NAME    = EARTH
REF_FRAME      = TEME
TIME_SYSTEM    = UTC
MEAN_ELEMENT_THEORY = SGP/SGP4

EPOCH          = 2025-12-10T12:21:47.683008
MEAN_MOTION    = 15.12141279
ECCENTRICITY   = .0007457
INCLINATION    = 69.9336
RA_OF_ASC_NODE = 107.5872
ARG_OF_PERICENTER = 261.4245
MEAN_ANOMALY   = 98.6075

EPHEMERIS_TYPE = 0
CLASSIFICATION_TYPE = U
NORAD_CAT_ID   = 29228
ELEMENT_SET_NO = 999
REV_AT_EPOCH   = 7404
BSTAR          = .24714E-3
MEAN_MOTION_DOT = .4166E-4
MEAN_MOTION_DDOT = 0

CCSDS_OMM_VERS = 2.0
CREATION_DATE  = 
ORIGINATOR     = 

OBJECT_NAME    = CZ-4B R/B
OBJECT_ID      = 2006-046C
CENTER_NAME    = EARTH
REF_FRAME      = TEME
TIME_SYSTEM    = UTC
MEAN_ELEMENT_THEORY = SGP/SGP4

EPOCH          = 2025-12-10T09:25:29.714592
MEAN_MOTION    = 15.15833088
ECCENTRICITY   = .0033098
INCLINATION    = 97.5735
RA_OF_ASC_NODE = 24.5369
ARG_OF_PERICENTER = 214.8681
MEAN_ANOMALY   = 145.0384

EPHEMERIS_TYPE = 0
CLASSIFICATION_TYPE = U
NORAD_CAT_ID   = 29507
ELEMENT_SET_NO = 999
REV_AT_EPOCH   = 4651
BSTAR          = .41544E-3
MEAN_MOTION_DOT = .7984E-4
MEAN_MOTION_DDOT = 0

CCSDS_OMM_VERS = 2.0
CREATION_DATE  = 
ORIGINATOR     = 

OBJECT_NAME    = CZ-2C R/B
OBJECT_ID      = 2007-010B
CENTER_NAME    = EARTH
REF_FRAME      = TEME
TIME_SYSTEM    = UTC
MEAN_ELEMENT_THEORY = SGP/SGP4

EPOCH          = 2025-12-10T07:45:34.522272
MEAN_MOTION    = 14.20208560
ECCENTRICITY   = .0058843
INCLINATION    = 98.3974
RA_OF_ASC_NODE = 97.0958
ARG_OF_PERICENTER = 193.0355
MEAN_ANOMALY   = 166.9304

EPHEMERIS_TYPE = 0
CLASSIFICATION_TYPE = U
NORAD_CAT_ID   = 31114
ELEMENT_SET_NO = 999
REV_AT_EPOCH   = 96703
BSTAR          = .15989E-3
MEAN_MOTION_DOT = .306E-5
MEAN_MOTION_DDOT = 0

CCSDS_OMM_VERS = 2.0
CREATION_DATE  = 
ORIGINATOR     = 

OBJECT_NAME    = COSMO-SKYMED 1
OBJECT_ID      = 2007-023A
CENTER_NAME    = EARTH
REF_FRAME      = TEME
TIME_SYSTEM    = UTC
MEAN_ELEMENT_THEORY = SGP/SGP4

EPOCH          = 2025-12-10T12:19:41.361024
MEAN_MOTION    = 14.95736577
ECCENTRICITY   = .0001062
INCLINATION    = 97.8835
RA_OF_ASC_NODE = 169.8985
ARG_OF_PERICENTER = 85.6031
MEAN_ANOMALY   = 274.5311

EPHEMERIS_TYPE = 0
CLASSIFICATION_TYPE = U
NORAD_CAT_ID   = 31598
ELEMENT_SET_NO = 999
REV_AT_EPOCH   = 157
BSTAR          = .50786E-3
MEAN_MOTION_DOT = .5601E-4
MEAN_MOTION_DDOT = 0

CCSDS_OMM_VERS = 2.0
CREATION_DATE  = 
ORIGINATOR     = 

OBJECT_NAME    = COSMOS 2428
OBJECT_ID      = 2007-029A
CENTER_NAME    = EARTH
REF_FRAME      = TEME
TIME_SYSTEM    = UTC
MEAN_ELEMENT_THEORY = SGP/SGP4

EPOCH          = 2025-12-10T11:20:53.164320
MEAN_MOTION    = 14.12888973
ECCENTRICITY   = .0003535
INCLINATION    = 70.9369
RA_OF_ASC_NODE = 30.6397
ARG_OF_PERICENTER = 26.8881
MEAN_ANOMALY   = 333.2423

EPHEMERIS_TYPE = 0
CLASSIFICATION_TYPE = U
NORAD_CAT_ID   = 31792
ELEMENT_SET_NO = 999
REV_AT_EPOCH   = 95149
BSTAR          = .84704E-4
MEAN_MOTION_DOT = .11E-5
MEAN_MOTION_DDOT = 0

CCSDS_OMM_VERS = 2.0
CREATION_DATE  = 
ORIGINATOR     = 

OBJECT_NAME    = SL-16 R/B
OBJECT_ID      = 2007-029B
CENTER_NAME    = EARTH
REF_FRAME      = TEME
TIME_SYSTEM    = UTC
MEAN_ELEMENT_THEORY = SGP/SGP4

EPOCH          = 2025-12-10T11:45:14.768064
MEAN_MOTION    = 14.14814748
ECCENTRICITY   = .0002258
INCLINATION    = 70.9758
RA_OF_ASC_NODE = 359.8877
ARG_OF_PERICENTER = 263.3800
MEAN_ANOMALY   = 205.8109

EPHEMERIS_TYPE = 0
CLASSIFICATION_TYPE = U
NORAD_CAT_ID   = 31793
ELEMENT_SET_NO = 999
REV_AT_EPOCH   = 95275
BSTAR          = -.45735E-4
MEAN_MOTION_DOT = -.136E-5
MEAN_MOTION_DDOT = 0

CCSDS_OMM_VERS = 2.0
CREATION_DATE  = 
ORIGINATOR     = 

OBJECT_NAME    = KORONAS-FOTON
OBJECT_ID      = 2009-003A
CENTER_NAME    = EARTH
REF_FRAME      = TEME
TIME_SYSTEM    = UTC
MEAN_ELEMENT_THEORY = SGP/SGP4

EPOCH          = 2025-12-10T11:33:58.536000
MEAN_MOTION    = 15.41105745
ECCENTRICITY   = .0013125
INCLINATION    = 82.4316
RA_OF_ASC_NODE = 8.4451
ARG_OF_PERICENTER = 115.5030
MEAN_ANOMALY   = 244.7575

EPHEMERIS_TYPE = 0
CLASSIFICATION_TYPE = U
NORAD_CAT_ID   = 33504
ELEMENT_SET_NO = 999
REV_AT_EPOCH   = 93199
BSTAR          = .44704E-3
MEAN_MOTION_DOT = .18602E-3
MEAN_MOTION_DDOT = 0

CCSDS_OMM_VERS = 2.0
CREATION_DATE  = 
ORIGINATOR     = 

OBJECT_NAME    = CZ-2C R/B
OBJECT_ID      = 2011-030B
CENTER_NAME    = EARTH
REF_FRAME      = TEME
TIME_SYSTEM    = UTC
MEAN_ELEMENT_THEORY = SGP/SGP4

EPOCH          = 2025-12-10T12:14:02.375808
MEAN_MOTION    = 14.80890635
ECCENTRICITY   = .0051393
INCLINATION    = 97.8411
RA_OF_ASC_NODE = 298.6655
ARG_OF_PERICENTER = 281.1063
MEAN_ANOMALY   = 196.5979

EPHEMERIS_TYPE = 0
CLASSIFICATION_TYPE = U
NORAD_CAT_ID   = 37731
ELEMENT_SET_NO = 999
REV_AT_EPOCH   = 77689
BSTAR          = .34939E-3
MEAN_MOTION_DOT = .2706E-4
MEAN_MOTION_DDOT = 0

CCSDS_OMM_VERS = 2.0
CREATION_DATE  = 
ORIGINATOR     = 

OBJECT_NAME    = H-2A R/B
OBJECT_ID      = 2012-025E
CENTER_NAME    = EARTH
REF_FRAME      = TEME
TIME_SYSTEM    = UTC
MEAN_ELEMENT_THEORY = SGP/SGP4

EPOCH          = 2025-12-10T10:19:28.236288
MEAN_MOTION    = 14.94426191
ECCENTRICITY   = .0043628
INCLINATION    = 98.4598
RA_OF_ASC_NODE = 299.4821
ARG_OF_PERICENTER = 243.8619
MEAN_ANOMALY   = 115.8108

EPHEMERIS_TYPE = 0
CLASSIFICATION_TYPE = U
NORAD_CAT_ID   = 38341
ELEMENT_SET_NO = 999
REV_AT_EPOCH   = 73488
BSTAR          = .53244E-3
MEAN_MOTION_DOT = .5779E-4
MEAN_MOTION_DDOT = 0

CCSDS_OMM_VERS = 2.0
CREATION_DATE  = 
ORIGINATOR     = 

OBJECT_NAME    = SHIJIAN-16 (SJ-16)
OBJECT_ID      = 2013-057A
CENTER_NAME    = EARTH
REF_FRAME      = TEME
TIME_SYSTEM    = UTC
MEAN_ELEMENT_THEORY = SGP/SGP4

EPOCH          = 2025-12-10T12:33:58.031712
MEAN_MOTION    = 14.91975081
ECCENTRICITY   = .0017512
INCLINATION    = 74.9731
RA_OF_ASC_NODE = 353.8485
ARG_OF_PERICENTER = 324.9602
MEAN_ANOMALY   = 35.0432

EPHEMERIS_TYPE = 0
CLASSIFICATION_TYPE = U
NORAD_CAT_ID   = 39358
ELEMENT_SET_NO = 999
REV_AT_EPOCH   = 65820
BSTAR          = .17353E-3
MEAN_MOTION_DOT = .1734E-4
MEAN_MOTION_DDOT = 0

