ALOS (DAICHI)           
1 28931U 06002A   25344.44839352  .00002369  00000+0  40813-3 0  9995
2 28931  98.1091 295.9518 0001056 113.0032 247.1285 14.69476480 60378
H-2A R/B                
1 28932U 06002B   25344.34084022  .00016099  00000+0  84576-3 0  9990
2 28932  98.2316 118.8933 0054521 184.5657 175.5083 15.14489465 80904
RESURS-DK 1             
1 29228U 06021A   25344.51513522  .00004166  00000+0  24714-3 0  9991
2 29228  69.9336 107.5872 0007457 261.4245  98.6075 15.12141279 74041
CZ-4B R/B               
1 29507U 06046C   25344.39270503  .00007984  00000+0  41544-3 0  9994
2 29507  97.5735  24.5369 0033098 214.8681 145.0384 15.15833088 46516
CZ-2C R/B               
1 31114U 07010B   25344.32331623  .00000306  00000+0  15989-3 0  9992
2 31114  98.3974  97.0958 0058843 193.0355 166.9304 14.20208560967036
COSMO-SKYMED 1          
1 31598U 07023A   25344.51367316  .00005601  00000+0  50786-3 0  9998
2 31598  97.8835 169.8985 0001062  85.6031 274.5311 14.95736577  1576
COSMOS 2428             
1 31792U 07029A   25344.47283755  .00000110  00000+0  84704-4 0  9997
2 31792  70.9369  30.6397 0003535  26.8881 333.2423 14.12888973951494
SL-16 R/B               
1 31793U 07029B   25344.48975426 -.00000136  00000+0 -45735-4 0  9993
2 31793  70.9758 359.8877 0002258 263.3800 205.8109 14.14814748952752
KORONAS-FOTON           
1 33504U 09003A   25344.48192750  .00018602  00000+0  44704-3 0  9999
2 33504  82.4316   8.4451 0013125 115.5030 244.7575 15.41105745931998
CZ-2C R/B               
1 37731U 11030B   25344.50974972  .00002706  00000+0  34939-3 0  9992
2 37731  97.8411 298.6655 0051393 281.1063 196.5979 14.80890635776893
H-2A R/B                
1 38341U 12025E   25344.43018792  .00005779  00000+0  53244-3 0  9999
2 38341  98.4598 299.4821 0043628 243.8619 115.8108 14.94426191734880
SHIJIAN-16 (SJ-16)      
1 39358U 13057A   25344.52358833  .00001734  00000+0  17353-3 0  9995
2 39358  74.9731 353.8485 0017512 324.9602  35.0432 14.91975081658202
